{"fetched_at":"2026-07-19T07:05:17.915Z","source":"https://celestrak.org/NORAD/elements/gp.php?NAME=JILIN&FORMAT=JSON","constellation":"jilin-1-early","records":[{"OBJECT_NAME":"JILIN-1","OBJECT_ID":"2015-057D","EPOCH":"2026-07-18T19:53:04.376832","CLASSIFICATION_TYPE":"U","MEAN_MOTION":14.78204437,"ECCENTRICITY":0.0017541,"INCLINATION":97.6521,"RA_OF_ASC_NODE":197.6269,"ARG_OF_PERICENTER":155.3968,"MEAN_ANOMALY":204.8084,"EPHEMERIS_TYPE":0,"NORAD_CAT_ID":40961,"ELEMENT_SET_NO":999,"REV_AT_EPOCH":58028,"BSTAR":0.00005485,"MEAN_MOTION_DOT":0.0000035,"MEAN_MOTION_DDOT":0},{"OBJECT_NAME":"JILIN-1 03","OBJECT_ID":"2017-002B","EPOCH":"2026-07-18T19:47:22.790112","CLASSIFICATION_TYPE":"U","MEAN_MOTION":15.42287847,"ECCENTRICITY":0.0007676,"INCLINATION":97.1955,"RA_OF_ASC_NODE":206.4795,"ARG_OF_PERICENTER":69.6897,"MEAN_ANOMALY":290.5175,"EPHEMERIS_TYPE":0,"NORAD_CAT_ID":41914,"ELEMENT_SET_NO":999,"REV_AT_EPOCH":52673,"BSTAR":0.0001806,"MEAN_MOTION_DOT":0.00007695,"MEAN_MOTION_DDOT":0},{"OBJECT_NAME":"JILIN-1 04","OBJECT_ID":"2017-074A","EPOCH":"2026-07-18T19:14:20.984064","CLASSIFICATION_TYPE":"U","MEAN_MOTION":15.43190789,"ECCENTRICITY":0.0005219,"INCLINATION":97.4879,"RA_OF_ASC_NODE":310.2782,"ARG_OF_PERICENTER":91.0723,"MEAN_ANOMALY":269.1122,"EPHEMERIS_TYPE":0,"NORAD_CAT_ID":43022,"ELEMENT_SET_NO":999,"REV_AT_EPOCH":47914,"BSTAR":0.00017862,"MEAN_MOTION_DOT":0.00007835,"MEAN_MOTION_DDOT":0},{"OBJECT_NAME":"JILIN-1 05","OBJECT_ID":"2017-074B","EPOCH":"2026-07-18T19:42:30.998304","CLASSIFICATION_TYPE":"U","MEAN_MOTION":15.34317751,"ECCENTRICITY":0.0006571,"INCLINATION":97.4882,"RA_OF_ASC_NODE":306.4163,"ARG_OF_PERICENTER":114.7333,"MEAN_ANOMALY":245.4594,"EPHEMERIS_TYPE":0,"NORAD_CAT_ID":43023,"ELEMENT_SET_NO":999,"REV_AT_EPOCH":47885,"BSTAR":0.00012601,"MEAN_MOTION_DOT":0.00004106,"MEAN_MOTION_DDOT":0},{"OBJECT_NAME":"JILIN-1 06","OBJECT_ID":"2017-074C","EPOCH":"2026-07-18T19:08:49.138080","CLASSIFICATION_TYPE":"U","MEAN_MOTION":15.34021038,"ECCENTRICITY":0.0008274,"INCLINATION":97.4806,"RA_OF_ASC_NODE":303.3593,"ARG_OF_PERICENTER":123.457,"MEAN_ANOMALY":236.7464,"EPHEMERIS_TYPE":0,"NORAD_CAT_ID":43024,"ELEMENT_SET_NO":999,"REV_AT_EPOCH":47868,"BSTAR":0.00010728,"MEAN_MOTION_DOT":0.00003452,"MEAN_MOTION_DDOT":0},{"OBJECT_NAME":"JILIN-1 07","OBJECT_ID":"2018-008E","EPOCH":"2026-07-18T20:10:12.072000","CLASSIFICATION_TYPE":"U","MEAN_MOTION":15.35199221,"ECCENTRICITY":0.0006423,"INCLINATION":97.1767,"RA_OF_ASC_NODE":218.9342,"ARG_OF_PERICENTER":312.0591,"MEAN_ANOMALY":48.0106,"EPHEMERIS_TYPE":0,"NORAD_CAT_ID":43159,"ELEMENT_SET_NO":999,"REV_AT_EPOCH":46985,"BSTAR":0.00013905,"MEAN_MOTION_DOT":0.00004675,"MEAN_MOTION_DDOT":0},{"OBJECT_NAME":"JILIN-1 08","OBJECT_ID":"2018-008F","EPOCH":"2026-07-18T20:43:01.238592","CLASSIFICATION_TYPE":"U","MEAN_MOTION":15.3403412,"ECCENTRICITY":0.0004876,"INCLINATION":97.1804,"RA_OF_ASC_NODE":218.2366,"ARG_OF_PERICENTER":337.55,"MEAN_ANOMALY":22.5529,"EPHEMERIS_TYPE":0,"NORAD_CAT_ID":43160,"ELEMENT_SET_NO":999,"REV_AT_EPOCH":46980,"BSTAR":0.00010056,"MEAN_MOTION_DOT":0.00003236,"MEAN_MOTION_DDOT":0},{"OBJECT_NAME":"JILIN-1 09","OBJECT_ID":"2019-005B","EPOCH":"2026-07-18T19:57:21.153312","CLASSIFICATION_TYPE":"U","MEAN_MOTION":15.20758074,"ECCENTRICITY":0.0001996,"INCLINATION":97.4744,"RA_OF_ASC_NODE":294.53,"ARG_OF_PERICENTER":28.187,"MEAN_ANOMALY":331.9473,"EPHEMERIS_TYPE":0,"NORAD_CAT_ID":43943,"ELEMENT_SET_NO":999,"REV_AT_EPOCH":41395,"BSTAR":0.00010221,"MEAN_MOTION_DOT":0.00002181,"MEAN_MOTION_DDOT":0},{"OBJECT_NAME":"JILIN-1 10","OBJECT_ID":"2019-005E","EPOCH":"2026-07-18T19:12:55.047168","CLASSIFICATION_TYPE":"U","MEAN_MOTION":15.26029542,"ECCENTRICITY":0.0008923,"INCLINATION":97.4796,"RA_OF_ASC_NODE":298.6134,"ARG_OF_PERICENTER":158.0722,"MEAN_ANOMALY":202.09,"EPHEMERIS_TYPE":0,"NORAD_CAT_ID":43946,"ELEMENT_SET_NO":999,"REV_AT_EPOCH":41413,"BSTAR":0.00012386,"MEAN_MOTION_DOT":0.00003116,"MEAN_MOTION_DDOT":0}]}
