JILIN-1                 
1 40961U 15057D   26199.82852288  .00000350  00000+0  54850-4 0  9991
2 40961  97.6521 197.6269 0017541 155.3968 204.8084 14.78204437580286
JILIN-1 03              
1 41914U 17002B   26199.82456933  .00007695  00000+0  18060-3 0  9990
2 41914  97.1955 206.4795 0007676  69.6897 290.5175 15.42287847526731
JILIN-1 04              
1 43022U 17074A   26199.80163176  .00007835  00000+0  17862-3 0  9998
2 43022  97.4879 310.2782 0005219  91.0723 269.1122 15.43190789479144
JILIN-1 05              
1 43023U 17074B   26199.82119211  .00004106  00000+0  12601-3 0  9996
2 43023  97.4882 306.4163 0006571 114.7333 245.4594 15.34317751478858
JILIN-1 06              
1 43024U 17074C   26199.79779095  .00003452  00000+0  10728-3 0  9996
2 43024  97.4806 303.3593 0008274 123.4570 236.7464 15.34021038478680
JILIN-1 07              
1 43159U 18008E   26199.84041750  .00004675  00000+0  13905-3 0  9997
2 43159  97.1767 218.9342 0006423 312.0591  48.0106 15.35199221469855
JILIN-1 08              
1 43160U 18008F   26199.86320878  .00003236  00000+0  10056-3 0  9998
2 43160  97.1804 218.2366 0004876 337.5500  22.5529 15.34034120469806
JILIN-1 09              
1 43943U 19005B   26199.83149483  .00002181  00000+0  10221-3 0  9995
2 43943  97.4744 294.5300 0001996  28.1870 331.9473 15.20758074413955
JILIN-1 10              
1 43946U 19005E   26199.80063712  .00003116  00000+0  12386-3 0  9998
2 43946  97.4796 298.6134 0008923 158.0722 202.0900 15.26029542414132
